HIMAWARI-8              
1 40267U 14060A   24196.52717493 -.00000259  00000+0  00000+0 0  9995
2 40267   0.0399 222.4145 0001090 255.7821 145.1282  1.00273967 35716
